OBJECT_NAME,OBJECT_ID,EPOCH,MEAN_MOTION,ECCENTRICITY,INCLINATION,RA_OF_ASC_NODE,ARG_OF_PERICENTER,MEAN_ANOMALY,EPHEMERIS_TYPE,CLASSIFICATION_TYPE,NORAD_CAT_ID,ELEMENT_SET_NO,REV_AT_EPOCH,BSTAR,MEAN_MOTION_DOT,MEAN_MOTION_DDOT
PERSEUS-M1,2014-033AF,2026-06-18T18:36:54.067392,14.95634843,.00101976,97.9640,113.9333,295.2954,64.7209,0,U,40039,999,65087,.12433073E-3,.1322E-4,0
POLYITAN-1,2014-033AJ,2026-06-18T14:50:43.313568,15.33297714,.00087243,98.0940,196.0151,137.4054,222.7864,0,U,40042,999,65381,.4742275E-3,.152E-3,0
TIGRISAT,2014-033AK,2026-06-18T22:26:19.970304,14.85167819,.00505403,97.7832,319.9063,69.6369,291.0266,0,U,40043,999,64588,.18213402E-3,.154E-4,0
AEROCUBE 6A,2014-033AM,2026-06-18T10:13:42.695040,14.98119366,.0038811,97.7249,336.3614,13.8936,346.3344,0,U,40045,999,64680,.33873E-3,.4013E-4,0
AEROCUBE 6B,2014-033AN,2026-06-18T16:39:40.461120,14.99581827,.00382049,97.7248,336.4203,4.1889,355.9647,0,U,40046,999,64698,.3216637E-3,.3955E-4,0
CANX-4,2014-034C,2026-06-18T21:47:49.095168,14.81267198,.00130396,98.3120,45.2845,11.6457,348.5053,0,U,40055,999,64478,.95633747E-4,.689E-5,0
CANX-5,2014-034D,2026-06-18T21:45:31.991328,14.81284514,.00130429,98.3121,45.3265,11.8778,348.2739,0,U,40056,999,63559,.9721318E-4,.701E-5,0
UKUBE-1,2014-037F,2026-06-18T22:52:38.944128,15.13577240,.00027235,98.4237,173.4107,129.5212,230.6257,0,U,40074,999,64882,.3998766E-3,.7098E-4,0
BRITE-PL2 (HEWELIUSZ),2014-049B,2026-06-18T18:41:57.183648,14.94598146,.00153333,97.9100,281.7913,103.7702,256.5226,0,U,40119,999,64168,.15283478E-3,.1598E-4,0
AEROCUBE 5C,2015-058B,2026-06-18T12:17:06.222048,14.91458402,.0130808,64.7674,258.4697,62.7526,298.6842,0,U,40965,999,36585,.15833E-3,.1689E-4,0
AEROCUBE 7,2015-058C,2026-06-18T21:44:03.300864,14.95733634,.0120548,64.7614,239.4335,61.0155,300.2980,0,U,40966,999,36621,.19565086E-3,.2344E-4,0
FOX-1A (AO-85),2015-058D,2026-06-18T16:39:25.987392,14.90975407,.01305339,64.7758,274.3012,56.0068,305.3365,0,U,40967,999,11379,.17186481E-3,.1823E-4,0
SINOD-D 1,2015-058E,2026-06-18T22:48:16.701984,14.95914276,.01191589,64.7748,253.3918,52.3768,308.8090,0,U,40968,999,11692,.19852049E-3,.2386E-4,0
SNAP-3 ALICE,2015-058G,2026-06-18T18:37:43.504608,15.60380771,.00278114,64.7501,98.4383,11.8686,348.3109,0,U,40970,999,11713,.12677448E-2,.107767E-2,0
LMRST-SAT,2015-058H,2026-06-18T07:32:33.843840,14.90593890,.0132146,64.7763,271.8213,58.1750,303.2148,0,U,40971,999,11372,.15881E-3,.1659E-4,0
SNAP-3 EDDIE,2015-058J,2026-06-18T21:25:56.966016,15.61690671,.0027398,64.7422,88.7458,15.7289,344.4703,0,U,40972,999,11929,.11527227E-2,.10295E-2,0
PROPCUBE 3,2015-058K,2026-06-18T22:47:11.651424,14.94264576,.01241351,64.7680,247.0301,59.2115,302.1149,0,U,40973,999,11506,.1737475E-3,.1993E-4,0
BISONSAT,2015-058L,2026-06-18T06:52:24.887424,15.16210467,.0079142,64.7580,170.0907,46.8172,313.9529,0,U,40974,999,11578,.47758E-3,.9843E-4,0
SNAP-3 JIMI,2015-058M,2026-06-18T06:06:11.481984,15.02305085,.0106227,64.7633,216.3962,54.9329,306.1695,0,U,40975,999,11438,.2434E-3,.3453E-4,0
PROPCUBE 1 (FLORA),2015-058N,2026-06-18T22:36:09.571680,14.89228366,.01308376,64.7755,289.7981,60.2370,301.1682,0,U,40976,999,11652,.16684393E-3,.168E-4,0
SINOD-D 3,2015-058P,2026-06-18T17:07:40.287936,14.94023737,.01193443,64.7729,271.0526,57.5326,303.7259,0,U,40977,999,11498,.21385404E-3,.2451E-4,0
HORYU-4,2016-012D,2026-06-18T22:29:54.658752,15.97357196,.00062912,30.9845,66.1629,284.4637,75.5327,0,U,41340,999,57109,.88397806E-3,.413406E-2,.63815042E-4
RAVAN,2016-067B,2026-06-18T04:51:09.611712,15.54764284,.0004242,97.9884,58.8909,28.9137,331.2350,0,U,41849,999,52785,.59216E-3,.39399E-3,0
CELTEE 1,2016-067C,2026-06-18T03:05:39.183072,15.19689358,.000098,98.0668,35.7600,126.8812,233.2511,0,U,41850,999,52602,.18683E-3,.391E-4,0
OPTICUBE 04,2016-067D,2026-06-18T12:53:49.315776,15.09664347,.0016939,98.0698,21.8916,111.3354,248.9683,0,U,41851,999,52537,.12559E-3,.1956E-4,0
AEROCUBE 8D,2016-067E,2026-06-18T14:23:32.284608,15.24413704,.0004791,98.0674,39.8781,119.8253,240.3459,0,U,41852,999,52628,.2456E-3,.5942E-4,0
AEROCUBE 8C,2016-067F,2026-06-18T21:17:12.883488,15.24665297,.00065292,98.0544,37.4122,64.3507,295.8402,0,U,41853,999,52632,.23408156E-3,.5704E-4,0
CORVUS BC2,2017-042X,2026-06-18T22:07:43.527648,15.06307766,.00144811,97.4074,331.2038,105.0492,255.2340,0,U,42846,999,48732,.21041319E-3,.3039E-4,0
CORVUS BC1,2017-042Y,2026-06-18T21:59:40.792704,15.06476405,.00134705,97.4108,332.0139,84.0465,276.2298,0,U,42847,999,48735,.18322332E-3,.265E-4,0
MAKERSAT 0,2017-073D,2026-06-18T22:38:23.758656,15.32145298,.01050123,97.4613,52.4756,266.6189,92.3036,0,U,43016,999,46673,.36589247E-3,.13439E-3,0
